ONEWEB-0444             
1 51638U 22012S   23230.74989351 -.00000578  00000+0 -16912-2 0  9998
2 51638  87.8806 241.5104 0001870  98.6061 261.5278 13.10369401 75286
ONEWEB-0445             
1 51639U 22012T   23230.46675666  .00000100  00000+0  24936-3 0  9994
2 51639  87.8812 241.5531 0002093  79.8695 280.2668 13.10378732 75244
ONEWEB-0446             
1 51640U 22012U   23230.74832549 -.00000548  00000+0 -16060-2 0  9998
2 51640  87.8802 241.5032 0002155  87.1593 272.9781 13.10371339 75283
ONEWEB-0448             
1 51641U 22012V   23230.06585539 -.00000591  00000+0 -17289-2 0  9990
2 51641  87.8805 241.6412 0001838  97.9903 262.1433 13.10372338 75152
ONEWEB-0449             
1 51642U 22012W   23229.76522246 -.00000471  00000+0 -13842-2 0  9990
2 51642  87.8809 241.7030 0001727  82.7169 277.4155 13.10374608 75137
ONEWEB-0451             
1 51643U 22012X   23230.71732655  .00000572  00000+0  14389-2 0  9992
2 51643  87.9173 211.2322 0001707  92.2966 267.8361 13.17652513 78864
ONEWEB-0452             
1 51644U 22012Y   23230.71521587  .00000416  00000+0  10387-2 0  9994
2 51644  87.9174 211.2131 0001557  80.3523 279.7784 13.17647885 78872
ONEWEB-0455             
1 51645U 22012Z   23230.69002931  .00000394  00000+0  16866-3 0  9993
2 51645  87.5358 203.1366 0014877 247.1091 112.8529 14.22554805 80430
